STARLINK-1784           
1 46687U 20073T   22198.01055050  .00003211  00000+0  23433-3 0  9995
2 46687  53.0555  79.7679 0001726  63.0921 297.0244 15.06408570 96692
STARLINK-1788           
1 46689U 20073V   22198.49939422  .00003096  00000+0  22658-3 0  9992
2 46689  53.0533 112.5659 0001610  66.8618 293.2540 15.06406885 97527
STARLINK-1789           
1 46690U 20073W   22198.43351597  .00004002  00000+0  28744-3 0  9999
2 46690  53.0552  87.8620 0001330  97.5941 262.5199 15.06397687 96618
STARLINK-1790           
1 46691U 20073X   22198.43260183  .00005019  00000+0  35569-3 0  9992
2 46691  53.0540  97.8687 0001610  67.1018 293.0141 15.06391303 96478
STARLINK-1791           
1 46692U 20073Y   22198.48465738  .00002291  00000+0  17263-3 0  9991
2 46692  53.0547 112.6214 0001588  69.2545 290.8614 15.06399993 96271
STARLINK-1792           
1 46693U 20073Z   22198.10454423  .00001151  00000+0  96165-4 0  9993
2 46693  53.0549  99.3476 0001495  73.2105 286.9048 15.06402695 96427
STARLINK-1793           
1 46694U 20073AA  22198.39388776  .00001206  00000+0  99808-4 0  9990
2 46694  53.0545  78.0531 0001584 106.8049 253.3114 15.06404965 96759
STARLINK-1795           
1 46696U 20073AC  22198.08058240  .00001495  00000+0  11923-3 0  9999
2 46696  53.0572  79.4532 0001554  73.4895 286.6264 15.06405203 96708
STARLINK-1797           
1 46698U 20073AE  22198.20312135  .00003258  00000+0  23745-3 0  9995
2 46698  53.0545  98.8809 0001571  82.7870 277.3297 15.06405963 96444
STARLINK-1799           
1 46699U 20073AF  22198.14140914  .00002469  00000+0  18457-3 0  9990
2 46699  53.0539  99.1775 0001419  65.6630 294.4507 15.06402011 96433
STARLINK-1800           
1 46700U 20073AG  22198.47729251  .00003586  00000+0  25965-3 0  9999
2 46700  53.0551 112.6674 0001514  67.0129 293.1020 15.06380176 96279
STARLINK-1801           
1 46701U 20073AH  22198.44365200  .00001342  00000+0  10901-3 0  9999
2 46701  53.0558  97.8306 0001457  70.4580 289.6566 15.06396628 96485
STARLINK-1802           
1 46702U 20073AJ  22198.39020258  .00000753  00000+0  69434-4 0  9996
2 46702  53.0558  78.0663 0001502  63.4560 296.6583 15.06399833 96752
STARLINK-1803           
1 46703U 20073AK  22198.42153445 -.00001284  00000+0 -67322-4 0  9992
2 46703  53.0541  97.9055 0001587  63.8413 296.2739 15.06398731 96478
STARLINK-1804           
1 46704U 20073AL  22198.40126401  .00004323  00000+0  30883-3 0  9999
2 46704  53.0540  78.0099 0001489  72.9708 287.1444 15.06412011 96756
STARLINK-1805           
1 46705U 20073AM  22198.48096816  .00005290  00000+0  37381-3 0  9998
2 46705  53.0547 112.6373 0001740  69.0621 291.0554 15.06395799 96271
STARLINK-1807           
1 46706U 20073AN  22198.45471094  .00001771  00000+0  13778-3 0  9995
2 46706  53.0557  97.7744 0001581  62.6981 297.4169 15.06398932 96486
STARLINK-1808           
1 46707U 20073AP  22198.37914653  .00000831  00000+0  74691-4 0  9998
2 46707  53.0561  78.1102 0001375  76.5359 283.5783 15.06405005 96755
STARLINK-1810           
1 46709U 20073AR  22198.45518534 -.00001003  00000+0 -48466-4 0  9992
2 46709  53.0545 112.8917 0001494  68.0212 292.0936 15.06393112 96261
STARLINK-1811           
1 46710U 20073AS  22198.14186598  .00002723  00000+0  20166-3 0  9995
2 46710  53.0562 114.1727 0001507  60.9534 299.1606 15.06399356 96223
STARLINK-1813           
1 46711U 20073AT  22198.44733228  .00014910  00000+0  10175-2 0  9996
2 46711  53.0540  97.8093 0001490  71.1741 288.9409 15.06408707 96484
STARLINK-1814           
1 46712U 20073AU  22198.42523730  .00000086  00000+0  24698-4 0  9996
2 46712  53.0544  98.0124 0001459  68.8373 291.2772 15.06397848 96478
STARLINK-1815           
1 46713U 20073AV  22198.42427420  .00000349  00000+0  42295-4 0  9991
2 46713  53.0554  97.8827 0001520  62.6157 297.4986 15.06399888 96479
STARLINK-1816           
1 46714U 20073AW  22198.41416213  .00002986  00000+0  21926-3 0  9995
2 46714  53.0538  97.9461 0001640  64.9191 295.1968 15.06407870 96479
STARLINK-1817           
1 46715U 20073AX  22198.41047692  .00001738  00000+0  13551-3 0  9996
2 46715  53.0547  97.9784 0001466  62.3200 297.7937 15.06404978 96477
STARLINK-1818           
1 46716U 20073AY  22198.49203500 -.00000672  00000+0 -26195-4 0  9994
2 46716  53.0535 112.5914 0001528  64.1809 295.9337 15.06393533 96274
STARLINK-1820           
1 46717U 20073AZ  22198.42890714  .00001678  00000+0  13152-3 0  9990
2 46717  53.0563  97.8891 0001523  72.4236 287.6920 15.06404571 96479
STARLINK-1821           
1 46718U 20073BA  22198.46896302  .00001600  00000+0  12625-3 0  9993
2 46718  53.0551 112.6813 0001679  72.9912 287.1261 15.06409550 96278
STARLINK-1822           
1 46719U 20073BB  22198.38652693  .00002839  00000+0  20942-3 0  9994
2 46719  53.0554  78.0730 0001556  72.6985 287.4174 15.06400563 96750
STARLINK-1823           
1 46720U 20073BC  22198.37716759  .00139581  00000+0  72424-3 0  9996
2 46720  53.0472 330.4383 0002585 326.0032  34.0823 15.80104286 98262
STARLINK-1825           
1 46722U 20073BE  22198.49570767  .00005899  00000+0  41437-3 0  9992
2 46722  53.0549 112.5921 0001592  58.8955 301.2190 15.06417565 96277
STARLINK-1826           
1 46723U 20073BF  22198.38881854  .00002242  00000+0  16932-3 0  9994
2 46723  53.0544  73.0678 0001394  74.2066 285.9076 15.06410236 96828
STARLINK-1828           
1 46725U 20073BH  22198.45885070 -.00000522  00000+0 -16128-4 0  9997
2 46725  53.0549 112.7468 0001586  65.8719 294.2436 15.06400396 96275
STARLINK-1829           
1 46726U 20073BJ  22198.41691339 -.00001037  00000+0 -50536-4 0  9990
2 46726  53.0536  97.9288 0007675  51.1112 309.0560 15.06401461 96475
STARLINK-1830           
1 46727U 20073BK  22198.50678275  .00016718  00000+0  11383-2 0  9990
2 46727  53.0537  72.5377 0001540  72.9502 287.1655 15.06408028 96842
STARLINK-1848           
1 46740U 20074B   22198.33445281  .00002481  00000+0  18537-3 0  9997
2 46740  53.0538 183.3108 0001649  62.3252 297.7904 15.06401170 95930
STARLINK-1865           
1 46741U 20074C   22198.21881251  .00000656  00000+0  62915-4 0  9998
2 46741  53.0543 178.8251 0001565  67.1070 293.0085 15.06397392 95998
STARLINK-1872           
1 46742U 20074D   22198.38837878  .00000897  00000+0  79143-4 0  9991
2 46742  53.0551 178.0713 0001505  68.3550 291.7599 15.06390017 96019
STARLINK-1892           
1 46743U 20074E   22198.21144214  .00002788  00000+0  20598-3 0  9999
2 46743  53.0537 178.8437 0001316  77.4370 282.6766 15.06399423 95997
STARLINK-1894           
1 46744U 20074F   22198.22891511  .00000576  00000+0  57572-4 0  9996
2 46744  53.0552 178.7757 0001787  56.1694 303.9465 15.06404087 95990
STARLINK-1898           
1 46745U 20074G   22198.01601847  .00030197  00000+0  69661-3 0  9998
2 46745  53.0516 118.0036 0002938  26.5858 333.5297 15.42328193 96839
STARLINK-1905           
1 46746U 20074H   22198.31095543  .00000730  00000+0  67920-4 0  9999
2 46746  53.0534 178.4170 0001899  49.9626 310.1529 15.06407916 96005
STARLINK-1908           
1 46747U 20074J   22198.35886838  .00001766  00000+0  13741-3 0  9990
2 46747  53.0536 178.2051 0001571  66.4886 293.6268 15.06405932 96015
STARLINK-1910           
1 46748U 20074K   22198.36625051  .00000345  00000+0  42062-4 0  9991
2 46748  53.0528 178.1697 0001466  71.6467 288.4681 15.06398367 96012
STARLINK-1911           
1 46749U 20074L   22198.43996039  .00000849  00000+0  75910-4 0  9994
2 46749  53.0535 177.8423 0001682  62.4864 297.6296 15.06403444 96043
STARLINK-1920           
1 46751U 20074N   22198.36993635 -.00001032  00000+0 -50414-4 0  9997
2 46751  53.0543 178.1522 0001378  70.3033 289.8104 15.06399272 96018
STARLINK-1921           
1 46752U 20074P   22198.24829185  .00000783  00000+0  71449-4 0  9994
2 46752  53.0552 178.6794 0002041  59.1004 301.0186 15.06402893 95993
STARLINK-1922           
1 46753U 20074Q   22198.41416911 -.00001546  00000+0 -84892-4 0  9999
2 46753  53.0548 177.9451 0001568  64.9662 295.1489 15.06403326 96024
STARLINK-1923           
1 46754U 20074R   22198.42154081 -.00001522  00000+0 -83263-4 0  9993
2 46754  53.0544 177.9054 0001561  73.9125 286.2035 15.06400691 96027
STARLINK-1924           
1 46755U 20074S   22198.42659960  .00001550  00000+0  12296-3 0  9996
2 46755  53.0538 182.8840 0001839  56.8673 303.2492 15.06402072 95958
STARLINK-1925           
1 46756U 20074T   22198.32345324  .00000159  00000+0  29608-4 0  9992
2 46756  53.0535 183.7496 0001776  55.3720 304.7436 15.06394082 95933
STARLINK-1926           
1 46757U 20074U   22198.33817451  .00000621  00000+0  60580-4 0  9997
2 46757  53.0528 183.5264 0001929  54.5154 305.6015 15.06399629 95934
STARLINK-1928           
1 46758U 20074V   22198.27548347  .00000090  00000+0  24932-4 0  9997
2 46758  53.0530 183.5613 0002037  50.5286 309.5883 15.06394832 95936
STARLINK-1833           
1 46759U 20074W   22198.46992480  .00000564  00000+0  56751-4 0  9990
2 46759  53.0541 192.7065 0001531  62.1529 297.9615 15.06396458 95556
STARLINK-1896           
1 46760U 20074X   22198.41462493  .00001979  00000+0  15173-3 0  9996
2 46760  53.0549 192.9551 0001416  60.8629 299.2502 15.06399350 95819
STARLINK-1902           
1 46763U 20074AA  22198.56119440 -.00002340  00000+0 -44230-4 0  9998
2 46763  53.0525 146.4852 0004360  60.2894 299.8545 15.42167529 96481
STARLINK-1903           
1 46764U 20074AB  22198.40725224  .00001558  00000+0  12345-3 0  9994
2 46764  53.0539 192.9848 0002139  45.7235 314.3929 15.06402880 95814
STARLINK-1906           
1 46765U 20074AC  22198.39620727  .00001811  00000+0  14045-3 0  9996
2 46765  53.0524 193.0245 0001621  70.6505 289.4659 15.06396427 95804
STARLINK-1916           
1 46766U 20074AD  22198.38882750 -.00000034  00000+0  16639-4 0  9991
2 46766  53.0552 193.0574 0001677  59.8903 300.2252 15.06397640 95813
STARLINK-1917           
1 46767U 20074AE  22198.48466586 -.00000150  00000+0  88113-5 0  9994
2 46767  53.0548 192.6425 0001731  55.0842 305.0310 15.06395275 95821
